start=new Date('2021-10-31T00:00:00.000Z').valueOf();
sats=[{"EPOCH":"2021-10-30T08:49:48.424512","INCLINATION":"53.0558","PERIAPSIS":"546.115","MEAN_MOTION_DOT":"0.00000456","ELEMENT_SET_NO":"999","PERIOD":"95.592","CLASSIFICATION_TYPE":"U","BSTAR":"0.00004948200000","OBJECT_NAME":"STARLINK-2303","MEAN_ANOMALY":"288.9038","REF_FRAME":"TEME","SITE":"AFETR","TLE_LINE2":"2 47981  53.0558 280.3504 0001574  71.2122 288.9038 15.06402790 34718","REV_AT_EPOCH":"3471","MEAN_MOTION":"15.06402790","GP_ID":"188514695","COUNTRY_CODE":"US","APOAPSIS":"548.295","DECAY_DATE":null,"OBJECT_TYPE":"PAYLOAD","ECCENTRICITY":"0.00015740","EPHEMERIS_TYPE":"0","SEMIMAJOR_AXIS":"6925.340","LAUNCH_DATE":"2021-03-24","MEAN_MOTION_DDOT":"0.0000000000000","OBJECT_ID":"2021-024E","MEAN_ELEMENT_THEORY":"SGP4","NORAD_CAT_ID":"47981","RCS_SIZE":"LARGE","CENTER_NAME":"EARTH","TLE_LINE1":"1 47981U 21024E   21303.36792158  .00000456  00000-0  49482-4 0  9994","TIME_SYSTEM":"UTC","RA_OF_ASC_NODE":"280.3504","ARG_OF_PERICENTER":"71.2122","FILE":"3192905"},{"MEAN_ELEMENT_THEORY":"SGP4","NORAD_CAT_ID":"47982","CENTER_NAME":"EARTH","RCS_SIZE":"LARGE","RA_OF_ASC_NODE":"207.1566","TIME_SYSTEM":"UTC","TLE_LINE1":"1 47982U 21024F   21303.91667824 -.00055862  00000-0 -39277-2 0  9999","FILE":"3193159","ARG_OF_PERICENTER":"68.6065","ECCENTRICITY":"0.00019890","OBJECT_TYPE":"PAYLOAD","DECAY_DATE":null,"MEAN_MOTION_DDOT":"0.0000000000000","OBJECT_ID":"2021-024F","EPHEMERIS_TYPE":"0","SEMIMAJOR_AXIS":"6930.288","LAUNCH_DATE":"2021-03-24","TLE_LINE2":"2 47982  53.0528 207.1566 0001989  68.6065 146.2725 15.04789767 35256","REV_AT_EPOCH":"3525","MEAN_MOTION":"15.04789767","MEAN_ANOMALY":"146.2725","SITE":"AFETR","REF_FRAME":"TEME","COUNTRY_CODE":"US","GP_ID":"188523590","APOAPSIS":"553.532","EPOCH":"2021-10-30T22:00:00.999936","INCLINATION":"53.0528","ELEMENT_SET_NO":"999","PERIOD":"95.694","PERIAPSIS":"550.775","MEAN_MOTION_DOT":"-0.00055862","BSTAR":"-0.00392770000000","OBJECT_NAME":"STARLINK-2317","CLASSIFICATION_TYPE":"U"},{"FILE":"3192905","ARG_OF_PERICENTER":"287.4816","TLE_LINE1":"1 47983U 21024G   21303.58335648 -.00018811  00000-0 -12948-3 0  9999","RA_OF_ASC_NODE":"189.7804","TIME_SYSTEM":"UTC","RCS_SIZE":"LARGE","CENTER_NAME":"EARTH","NORAD_CAT_ID":"47983","MEAN_ELEMENT_THEORY":"SGP4","SEMIMAJOR_AXIS":"6727.880","LAUNCH_DATE":"2021-03-24","EPHEMERIS_TYPE":"0","OBJECT_ID":"2021-024G","MEAN_MOTION_DDOT":"0.0000000000000","DECAY_DATE":null,"OBJECT_TYPE":"PAYLOAD","ECCENTRICITY":"0.00083180","APOAPSIS":"355.341","GP_ID":"188516196","COUNTRY_CODE":"US","REF_FRAME":"TEME","SITE":"AFETR","MEAN_ANOMALY":"65.2682","MEAN_MOTION":"15.73205472","REV_AT_EPOCH":"369","TLE_LINE2":"2 47983  53.0433 189.7804 0008318 287.4816  65.2682 15.73205472  3697","CLASSIFICATION_TYPE":"U","OBJECT_NAME":"STARLINK-2289","BSTAR":"-0.00012948000000","PERIAPSIS":"344.148","MEAN_MOTION_DOT":"-0.00018811","PERIOD":"91.533","ELEMENT_SET_NO":"999","EPOCH":"2021-10-30T14:00:01.999872","INCLINATION":"53.0433"},{"GP_ID":"188523602","COUNTRY_CODE":"US","APOAPSIS":"354.376","TLE_LINE2":"2 47984  53.0426 188.4528 0006912 297.0690 339.0687 15.73212090 35511","REV_AT_EPOCH":"3551","MEAN_MOTION":"15.73212090","MEAN_ANOMALY":"339.0687","REF_FRAME":"TEME","SITE":"AFETR","BSTAR":"0.00000743520000","OBJECT_NAME":"STARLINK-2316","CLASSIFICATION_TYPE":"U","EPOCH":"2021-10-30T22:00:00.999936","INCLINATION":"53.0426","PERIAPSIS":"345.075","MEAN_MOTION_DOT":"0.00000415","ELEMENT_SET_NO":"999","PERIOD":"91.532","TLE_LINE1":"1 47984U 21024H   21303.91667824  .00000415  00000-0  74352-5 0  9999","RA_OF_ASC_NODE":"188.4528","TIME_SYSTEM":"UTC","ARG_OF_PERICENTER":"297.0690","FILE":"3193159","MEAN_ELEMENT_THEORY":"SGP4","NORAD_CAT_ID":"47984","RCS_SIZE":"LARGE","CENTER_NAME":"EARTH","MEAN_MOTION_DDOT":"0.0000000000000","OBJECT_ID":"2021-024H","EPHEMERIS_TYPE":"0","LAUNCH_DATE":"2021-03-24","SEMIMAJOR_AXIS":"6727.861","OBJECT_TYPE":"PAYLOAD","ECCENTRICITY":"0.00069120","DECAY_DATE":null},{"MEAN_MOTION_DDOT":"0.0000000000000","OBJECT_ID":"2021-024J","EPHEMERIS_TYPE":"0","SEMIMAJOR_AXIS":"6930.286","LAUNCH_DATE":"2021-03-24","ECCENTRICITY":"0.00022030","OBJECT_TYPE":"PAYLOAD","DECAY_DATE":null,"RA_OF_ASC_NODE":"211.7715","TIME_SYSTEM":"UTC","TLE_LINE1":"1 47985U 21024J   21303.91667824 -.00027035  00000-0 -18830-2 0  9995","FILE":"3193159","ARG_OF_PERICENTER":"68.4542","NORAD_CAT_ID":"47985","MEAN_ELEMENT_THEORY":"SGP4","CENTER_NAME":"EARTH","RCS_SIZE":"LARGE","BSTAR":"-0.00188300000000","OBJECT_NAME":"STARLINK-2308","CLASSIFICATION_TYPE":"U","INCLINATION":"53.0546","EPOCH":"2021-10-30T22:00:00.999936","ELEMENT_SET_NO":"999","PERIOD":"95.694","PERIAPSIS":"550.624","MEAN_MOTION_DOT":"-0.00027035","COUNTRY_CODE":"US","GP_ID":"188523089","APOAPSIS":"553.678","REV_AT_EPOCH":"3519","TLE_LINE2":"2 47985  53.0546 211.7715 0002203  68.4542  37.9765 15.04790372 35191","MEAN_MOTION":"15.04790372","MEAN_ANOMALY":"37.9765","SITE":"AFETR","REF_FRAME":"TEME"},{"DECAY_DATE":null,"ECCENTRICITY":"0.00063350","OBJECT_TYPE":"PAYLOAD","LAUNCH_DATE":"2021-03-24","SEMIMAJOR_AXIS":"6737.406","EPHEMERIS_TYPE":"0","OBJECT_ID":"2021-024K","MEAN_MOTION_DDOT":"0.0000000000000","CENTER_NAME":"EARTH","RCS_SIZE":"LARGE","NORAD_CAT_ID":"47986","MEAN_ELEMENT_THEORY":"SGP4","ARG_OF_PERICENTER":"291.0376","FILE":"3192905","TIME_SYSTEM":"UTC","RA_OF_ASC_NODE":"185.3678","TLE_LINE1":"1 47986U 21024K   21303.58335648  .00101838  00000-0  82879-3 0  9992","PERIOD":"91.727","ELEMENT_SET_NO":"999","PERIAPSIS":"355.003","MEAN_MOTION_DOT":"0.00101838","INCLINATION":"53.0320","EPOCH":"2021-10-30T14:00:01.999872","CLASSIFICATION_TYPE":"U","OBJECT_NAME":"STARLINK-2313","BSTAR":"0.00082879000000","SITE":"AFETR","REF_FRAME":"TEME","MEAN_ANOMALY":"223.8553","MEAN_MOTION":"15.69869896","TLE_LINE2":"2 47986  53.0320 185.3678 0006335 291.0376 223.8553 15.69869896  3695","REV_AT_EPOCH":"369","APOAPSIS":"363.539","COUNTRY_CODE":"US","GP_ID":"188515445"},{"COUNTRY_CODE":"US","GP_ID":"188515697","APOAPSIS":"351.555","MEAN_ANOMALY":"339.7007","SITE":"AFETR","REF_FRAME":"TEME","TLE_LINE2":"2 47987  53.0427 189.7666 0002681  13.6501 339.7007 15.73203069  3697","REV_AT_EPOCH":"369","MEAN_MOTION":"15.73203069","CLASSIFICATION_TYPE":"U","BSTAR":"0.00044501000000","OBJECT_NAME":"STARLINK-2311","INCLINATION":"53.0427","EPOCH":"2021-10-30T14:00:01.999872","PERIOD":"91.533","ELEMENT_SET_NO":"999","PERIAPSIS":"347.948","MEAN_MOTION_DOT":"0.00062325","RA_OF_ASC_NODE":"189.7666","TIME_SYSTEM":"UTC","TLE_LINE1":"1 47987U 21024L   21303.58335648  .00062325  00000-0  44501-3 0  9990","ARG_OF_PERICENTER":"13.6501","FILE":"3192905","NORAD_CAT_ID":"47987","MEAN_ELEMENT_THEORY":"SGP4","CENTER_NAME":"EARTH","RCS_SIZE":"LARGE","EPHEMERIS_TYPE":"0","SEMIMAJOR_AXIS":"6727.886","LAUNCH_DATE":"2021-03-24","MEAN_MOTION_DDOT":"0.0000000000000","OBJECT_ID":"2021-024L","DECAY_DATE":null,"ECCENTRICITY":"0.00026810","OBJECT_TYPE":"PAYLOAD"},{"MEAN_ELEMENT_THEORY":"SGP4","NORAD_CAT_ID":"47988","CENTER_NAME":"EARTH","RCS_SIZE":"LARGE","TIME_SYSTEM":"UTC","RA_OF_ASC_NODE":"256.1116","TLE_LINE1":"1 47988U 21024M   21303.19514131  .00001343  00000-0  10903-3 0  9996","FILE":"3192905","ARG_OF_PERICENTER":"76.7893","DECAY_DATE":null,"ECCENTRICITY":"0.00016380","OBJECT_TYPE":"PAYLOAD","EPHEMERIS_TYPE":"0","SEMIMAJOR_AXIS":"6925.360","LAUNCH_DATE":"2021-03-24","MEAN_MOTION_DDOT":"0.0000000000000","OBJECT_ID":"2021-024M","MEAN_ANOMALY":"283.3279","SITE":"AFETR","REF_FRAME":"TEME","TLE_LINE2":"2 47988  53.0568 256.1116 0001638  76.7893 283.3279 15.06396219 34974","REV_AT_EPOCH":"3497","MEAN_MOTION":"15.06396219","COUNTRY_CODE":"US","GP_ID":"188515946","APOAPSIS":"548.360","EPOCH":"2021-10-30T04:41:00.209184","INCLINATION":"53.0568","PERIOD":"95.592","ELEMENT_SET_NO":"999","PERIAPSIS":"546.091","MEAN_MOTION_DOT":"0.00001343","CLASSIFICATION_TYPE":"U","BSTAR":"0.00010903000000","OBJECT_NAME":"STARLINK-2306"},{"SITE":"AFETR","REF_FRAME":"TEME","MEAN_ANOMALY":"42.2749","MEAN_MOTION":"15.43009498","TLE_LINE2":"2 47989  53.0434 191.7613 0001269  63.2590  42.2749 15.43009498  3698","REV_AT_EPOCH":"369","APOAPSIS":"438.100","COUNTRY_CODE":"US","GP_ID":"188514696","ELEMENT_SET_NO":"999","PERIOD":"93.324","PERIAPSIS":"436.370","MEAN_MOTION_DOT":"-0.01010819","INCLINATION":"53.0434","EPOCH":"2021-10-30T14:00:01.999872","CLASSIFICATION_TYPE":"U","OBJECT_NAME":"STARLINK-2305","BSTAR":"-0.02479200000000","CENTER_NAME":"EARTH","RCS_SIZE":"MEDIUM","MEAN_ELEMENT_THEORY":"SGP4","NORAD_CAT_ID":"47989","ARG_OF_PERICENTER":"63.2590","FILE":"3192905","RA_OF_ASC_NODE":"191.7613","TIME_SYSTEM":"UTC","TLE_LINE1":"1 47989U 21024N   21303.58335648 -.01010819  00000-0 -24792-1 0  9994","DECAY_DATE":null,"ECCENTRICITY":"0.00012690","OBJECT_TYPE":"PAYLOAD","LAUNCH_DATE":"2021-03-24","SEMIMAJOR_AXIS":"6815.370","EPHEMERIS_TYPE":"0","OBJECT_ID":"2021-024N","MEAN_MOTION_DDOT":"0.0000000000000"},{"COUNTRY_CODE":"US","GP_ID":"188520378","APOAPSIS":"449.556","MEAN_ANOMALY":"52.2940","SITE":"AFETR","REF_FRAME":"TEME","REV_AT_EPOCH":"3549","TLE_LINE2":"2 47990  53.0427 190.2407 0001161  75.4609  52.2940 15.39102695 35499","MEAN_MOTION":"15.39102695","CLASSIFICATION_TYPE":"U","BSTAR":"-0.01238300000000","OBJECT_NAME":"STARLINK-2307","EPOCH":"2021-10-30T22:00:00.999936","INCLINATION":"53.0427","PERIOD":"93.561","ELEMENT_SET_NO":"999","PERIAPSIS":"447.971","MEAN_MOTION_DOT":"-0.00459150","TIME_SYSTEM":"UTC","RA_OF_ASC_NODE":"190.2407","TLE_LINE1":"1 47990U 21024P   21303.91667824 -.00459150  00000-0 -12383-1 0  9994","ARG_OF_PERICENTER":"75.4609","FILE":"3193054","MEAN_ELEMENT_THEORY":"SGP4","NORAD_CAT_ID":"47990","CENTER_NAME":"EARTH","RCS_SIZE":"LARGE","EPHEMERIS_TYPE":"0","SEMIMAJOR_AXIS":"6826.898","LAUNCH_DATE":"2021-03-24","MEAN_MOTION_DDOT":"0.0000000000000","OBJECT_ID":"2021-024P","DECAY_DATE":null,"ECCENTRICITY":"0.00011610","OBJECT_TYPE":"PAYLOAD"}];
